[{"OBJECT_ID":"2010-002A","OBJECT_NAME":"RADUGA 1M-2","NORAD_CAT_ID":"36358","OBJECT_TYPE":"PAYLOAD","PERIOD":"1436.055","INCLINATION":"0.038","APOGEE":"35791.936","PERIGEE":"35779.650","ECCENTRICITY":"0.0001457","MEAN_MOTION":"1.00274651","TLE_LINE1":"1 36358U 10002A   16238.72552757 -.00000212  00000-0  00000+0 0  9993","TLE_LINE2":"2 36358   0.0380 261.9295 0001457 339.8040  78.8721  1.00274651 24089","LAUNCH_DATE":"2010-01-28","LAUNCH_SITE":"TYURATAM MISSILE AND SPACE COMPLEX","OWNER":"COMMONWEALTH OF INDEPENDENT STATES","ORBIT_TYPE":"Geosynchronous","OPERATIONAL_STATUS":"Operational","satInfo":{"lng":65.31759593803548,"lat":2.1017230017491837,"elevation":-6.515543524068507,"azimuth":249.68240406196452,"range":42409.86753694001,"height":35786.145394823354,"velocity":3.074701689391543},"x":325,"y":-149},{"OBJECT_ID":"2010-006A","OBJECT_NAME":"INTELSAT 16","NORAD_CAT_ID":"36397","OBJECT_TYPE":"PAYLOAD","PERIOD":"1436.091","INCLINATION":"0.0514","APOGEE":"35792.920","PERIGEE":"35780.068","ECCENTRICITY":"0.0001524","MEAN_MOTION":"1.00272151","TLE_LINE1":"1 36397U 10006A   16239.38667722 -.00000314  00000-0  00000+0 0  9995","TLE_LINE2":"2 36397   0.0514 289.2774 0001524 236.0477 250.8303  1.00272151 23825","LAUNCH_DATE":"2010-02-12","LAUNCH_SITE":"TYURATAM MISSILE AND SPACE COMPLEX","OWNER":"INTERNATIONAL TELECOMMUNICATIONS SATELLITE ORGANIZATION (INTELSAT)","ORBIT_TYPE":"Geosynchronous","OPERATIONAL_STATUS":"Operational","satInfo":{"lng":-65.62097655834172,"lat":-1.6253973722691868,"elevation":-10.157135972989877,"azimuth":20.6209765583417,"range":42824.69492313079,"height":35792.35183670812,"velocity":3.0746612794203685},"x":-326,"y":-148},{"OBJECT_ID":"2010-008A","OBJECT_NAME":"GOES 15","NORAD_CAT_ID":"36411","OBJECT_TYPE":"PAYLOAD","PERIOD":"1436.220","INCLINATION":"0.3923","APOGEE":"35801.398","PERIGEE":"35776.637","ECCENTRICITY":"0.0002936","MEAN_MOTION":"1.00263149","TLE_LINE1":"1 36411U 10008A   16238.44723602 +.00000063 +00000-0 +00000-0 0  9991","TLE_LINE2":"2 36411 000.3923 272.5942 0002936 257.9849 189.4200 01.00263149023767","LAUNCH_DATE":"2010-03-04","LAUNCH_SITE":"AIR FORCE EASTERN TEST RANGE","OWNER":"UNITED STATES OF AMERICA","ORBIT_TYPE":"Geosynchronous","OPERATIONAL_STATUS":"Operational","satInfo":{"lng":-122.13584728541369,"lat":-1.9346882231654399,"elevation":-10.463931882656196,"azimuth":77.13584728541367,"range":42828.39086331145,"height":35761.990614959104,"velocity":3.075991967506301},"x":-303,"y":190},{"OBJECT_ID":"2010-010A","OBJECT_NAME":"ECHOSTAR 14","NORAD_CAT_ID":"36499","OBJECT_TYPE":"PAYLOAD","PERIOD":"1436.118","INCLINATION":"0.0148","APOGEE":"35798.231","PERIGEE":"35775.825","ECCENTRICITY":"0.0002657","MEAN_MOTION":"1.00270245","TLE_LINE1":"1 36499U 10010A   16238.39507914 -.00000026 +00000-0 +00000-0 0  9990","TLE_LINE2":"2 36499 000.0148 159.7231 0002657 356.8691 200.8075 01.00270245010668","LAUNCH_DATE":"2010-03-20","LAUNCH_SITE":"TYURATAM MISSILE AND SPACE COMPLEX","OWNER":"UNITED STATES OF AMERICA","ORBIT_TYPE":"Geosynchronous","OPERATIONAL_STATUS":"Operational","satInfo":{"lng":-107.13246861103808,"lat":0.6051412540569739,"elevation":-7.98608603991848,"azimuth":62.13246861103808,"range":42556.23613082462,"height":35767.7300896304,"velocity":3.0757826703161815},"x":-342,"y":105},{"OBJECT_ID":"2010-016A","OBJECT_NAME":"SES 1","NORAD_CAT_ID":"36516","OBJECT_TYPE":"PAYLOAD","PERIOD":"1436.089","INCLINATION":"0.0608","APOGEE":"35791.945","PERIGEE":"35780.940","ECCENTRICITY":"0.0001305","MEAN_MOTION":"1.00272335","TLE_LINE1":"1 36516U 10016A   16239.34169606 -.00000143  00000-0  00000+0 0  9993","TLE_LINE2":"2 36516   0.0608 290.5307 0001305 244.6869 181.7926  1.00272335 23227","LAUNCH_DATE":"2010-04-24","LAUNCH_SITE":"TYURATAM MISSILE AND SPACE COMPLEX","OWNER":"SOCIÉTÉ EUROPÉENNE DES SATELLITES","ORBIT_TYPE":"Geosynchronous","OPERATIONAL_STATUS":"Operational","satInfo":{"lng":-104.69734835972592,"lat":-2.1626470470525803,"elevation":-10.681299329871106,"azimuth":59.69734835972592,"range":42873.998679940036,"height":35782.998355951706,"velocity":3.0750139827585152},"x":-346,"y":91},{"OBJECT_ID":"2010-021A","OBJECT_NAME":"ASTRA 3B","NORAD_CAT_ID":"36581","OBJECT_TYPE":"PAYLOAD","PERIOD":"1436.101","INCLINATION":"0.0561","APOGEE":"35798.900","PERIGEE":"35774.461","ECCENTRICITY":"0.0002898","MEAN_MOTION":"1.00271484","TLE_LINE1":"1 36581U 10021A   16239.07378310  .00000109  00000-0  00000+0 0  9996","TLE_LINE2":"2 36581   0.0561 338.6185 0002898 188.1095 218.0512  1.00271484 22730","LAUNCH_DATE":"2010-05-21","LAUNCH_SITE":"FRENCH GUIANA","OWNER":"SOCIÉTÉ EUROPÉENNE DES SATELLITES","ORBIT_TYPE":"Geosynchronous","OPERATIONAL_STATUS":"Operational","satInfo":{"lng":51.4722291969092,"lat":0.3024851108469506,"elevation":-8.281032155360151,"azimuth":263.5277708030908,"range":42594.44598222292,"height":35772.785831794,"velocity":3.0748111565713474},"x":280,"y":-223},{"OBJECT_ID":"2010-021B","OBJECT_NAME":"COMSATBW-2","NORAD_CAT_ID":"36582","OBJECT_TYPE":"PAYLOAD","PERIOD":"1436.112","INCLINATION":"0.0454","APOGEE":"35794.506","PERIGEE":"35779.301","ECCENTRICITY":"0.0001803","MEAN_MOTION":"1.00270691","TLE_LINE1":"1 36582U 10021B   16239.18868789  .00000060  00000-0  00000+0 0  9999","TLE_LINE2":"2 36582   0.0454 286.0287 0001803 255.5659 234.3642  1.00270691 23073","LAUNCH_DATE":"2010-05-21","LAUNCH_SITE":"FRENCH GUIANA","OWNER":"GERMANY","ORBIT_TYPE":"Geosynchronous","OPERATIONAL_STATUS":"Operational","satInfo":{"lng":14.726475158304888,"lat":1.2973255289799885,"elevation":-7.305468541525641,"azimuth":300.27352484169506,"range":42494.37039558193,"height":35782.07339411575,"velocity":3.074812507010107},"x":91,"y":-346},{"OBJECT_ID":"2010-024A","OBJECT_NAME":"BEIDOU G3","NORAD_CAT_ID":"36590","OBJECT_TYPE":"PAYLOAD","PERIOD":"1435.990","INCLINATION":"1.3275","APOGEE":"35804.394","PERIGEE":"35764.618","ECCENTRICITY":"0.0004717","MEAN_MOTION":"1.00279242","TLE_LINE1":"1 36590U 10024A   16238.98972933 -.00000382  00000-0  00000+0 0  9993","TLE_LINE2":"2 36590   1.3275  22.4265 0004717 298.5754 120.3720  1.00279242 22863","LAUNCH_DATE":"2010-06-02","LAUNCH_SITE":"Xichang Space Center, China","OWNER":"PEOPLES REPUBLIC OF CHINA","ORBIT_TYPE":"Geosynchronous","OPERATIONAL_STATUS":"Operational","satInfo":{"lng":53.730899232749415,"lat":-0.7532775723115069,"elevation":-9.309478584526923,"azimuth":261.2691007672505,"range":42721.02947745202,"height":35783.85251675165,"velocity":3.0754922430987373},"x":289,"y":-212},{"OBJECT_ID":"2010-025A","OBJECT_NAME":"BADR-5 (ARABSAT 5B)","NORAD_CAT_ID":"36592","OBJECT_TYPE":"PAYLOAD","PERIOD":"1436.104","INCLINATION":"0.0115","APOGEE":"35806.764","PERIGEE":"35766.707","ECCENTRICITY":"0.000475","MEAN_MOTION":"1.00271288","TLE_LINE1":"1 36592U 10025A   16239.11923657  .00000116  00000-0  00000+0 0  9995","TLE_LINE2":"2 36592   0.0115 149.6180 0004750  21.0506 233.0154  1.00271288 22981","LAUNCH_DATE":"2010-06-03","LAUNCH_SITE":"TYURATAM MISSILE AND SPACE COMPLEX","OWNER":"ARAB SATELLITE COMMUNICATIONS ORGANIZATION","ORBIT_TYPE":"Geosynchronous","OPERATIONAL_STATUS":"Operational","satInfo":{"lng":62.120154475431505,"lat":-0.8238987503027463,"elevation":-9.379336350918999,"azimuth":252.87984552456848,"range":42723.734610235,"height":35778.77808733724,"velocity":3.07430149235195},"x":316,"y":-167},{"OBJECT_ID":"2010-032A","OBJECT_NAME":"COMS 1","NORAD_CAT_ID":"36744","OBJECT_TYPE":"PAYLOAD","PERIOD":"1436.081","INCLINATION":"0.0236","APOGEE":"35790.451","PERIGEE":"35782.144","ECCENTRICITY":"9.85e-05","MEAN_MOTION":"1.00272852","TLE_LINE1":"1 36744U 10032A   16239.43002204 -.00000373  00000-0  00000+0 0  9999","TLE_LINE2":"2 36744   0.0236  99.2345 0000985 109.8254  49.0291  1.00272852 22736","LAUNCH_DATE":"2010-06-26","LAUNCH_SITE":"FRENCH GUIANA","OWNER":"SOUTH KOREA","ORBIT_TYPE":"Geosynchronous","OPERATIONAL_STATUS":"Operational","satInfo":{"lng":112.1930617832232,"lat":-1.5053092503728327,"elevation":-10.03682344170921,"azimuth":202.80693821677676,"range":42828.86880795442,"height":35809.8211034832,"velocity":3.073688446072952},"x":332,"y":135},{"OBJECT_ID":"2010-032B","OBJECT_NAME":"ARABSAT 5A","NORAD_CAT_ID":"36745","OBJECT_TYPE":"PAYLOAD","PERIOD":"1436.021","INCLINATION":"0.0573","APOGEE":"35798.667","PERIGEE":"35771.565","ECCENTRICITY":"0.0003214","MEAN_MOTION":"1.00277066","TLE_LINE1":"1 36745U 10032B   16239.11160700  .00000126  00000-0  00000+0 0  9996","TLE_LINE2":"2 36745   0.0573 343.5122 0003214 173.7051 248.2705  1.00277066 22715","LAUNCH_DATE":"2010-06-26","LAUNCH_SITE":"FRENCH GUIANA","OWNER":"ARAB SATELLITE COMMUNICATIONS ORGANIZATION","ORBIT_TYPE":"Geosynchronous","OPERATIONAL_STATUS":"Operational","satInfo":{"lng":82.92681505257089,"lat":0.5252040386188893,"elevation":-8.063078455115926,"azimuth":232.07318494742907,"range":42570.90556781775,"height":35773.69231385729,"velocity":3.0747059547732767},"x":355,"y":-44},{"OBJECT_ID":"2010-032C","OBJECT_NAME":"ARIANE 5 R/B","NORAD_CAT_ID":"36746","OBJECT_TYPE":"ROCKET BODY","PERIOD":"597.726","INCLINATION":"1.3075","APOGEE":"34008.574","PERIGEE":"245.338","ECCENTRICITY":"0.7182111","MEAN_MOTION":"2.40912781","TLE_LINE1":"1 36746U 10032C   16238.59796432  .00002826  00000-0  75380-3 0  9991","TLE_LINE2":"2 36746   1.3075 205.0308 7182111 281.4705  11.7377  2.40912781 52793","LAUNCH_DATE":"2010-06-26","LAUNCH_SITE":"FRENCH GUIANA","OWNER":"FRANCE","ORBIT_TYPE":"Highly Elliptical Orbit","OPERATIONAL_STATUS":"N/A, derelict rocket body","satInfo":{"lng":116.35624463070958,"lat":0.04612987330298569,"elevation":-14.119920372447831,"azimuth":198.64375536929037,"range":25975.887607677156,"height":18812.955956364058,"velocity":3.7862866199055647},"x":169,"y":84}]